FENGYUN 1C DEB          
1 31298U 99025BPG 20100.89861349  .00011348  00000-0  75268-3 0  9997
2 31298  98.9847 229.5855 0025769 304.3189  55.5596 15.07206926697705
FENGYUN 1C DEB          
1 31299U 99025BPH 20101.44647941  .00006916  00000-0  25582-3 0  9999
2 31299  96.9482 162.9679 0195953 140.1421 221.4392 15.11771653700770
FENGYUN 1C DEB          
1 31300U 99025BPJ 20101.34638209  .00000579  00000-0  38186-3 0  9991
2 31300  99.5364  28.0452 0071330   3.9690 118.0827 14.04926315670967
FENGYUN 1C DEB          
1 31302U 99025BPL 20100.69897194  .00000642  00000-0  36918-3 0  9992
2 31302  99.3752 357.0468 0034268 117.0179 298.9009 14.12855685669865
FENGYUN 1C DEB          
1 31303U 99025BPM 20101.02701644  .00000052  00000-0  54389-4 0  9993
2 31303  98.9138 133.8658 0010336 255.8020 104.2002 14.10086146671384
AIM                     
1 31304U 07015A   20101.40999744  .00000728  00000-0  44669-4 0  9994
2 31304  97.9166 341.6167 0003979 218.7279 141.3667 15.13506402710398
PEGASUS R/B             
1 31305U 07015B   20100.71950145  .00000896  00000-0  72347-4 0  9990
2 31305  97.9803 331.0003 0020556  82.4264 277.9294 15.02395323708136
ASTRA 1L                
1 31306U 07016A   20100.69748742  .00000103  00000-0  00000-0 0  9991
2 31306   0.0475 307.7198 0004105  39.3760 121.5466  1.00269902 22394
GALAXY 17 (G-17)        
1 31307U 07016B   20101.43292213 -.00000191  00000-0  00000+0 0  9999
2 31307   0.0234 304.4624 0003514  87.2162 232.2905  1.00270290 47428
ARIANE 5 R/B            
1 31308U 07016C   20100.69715338  .00000643  00000-0  23362-3 0  9996
2 31308   5.7101  76.1542 7067901  31.6985 355.9155  2.54615928114245
FENGYUN 1C DEB          
1 31310U 99025BPN 20100.51363517  .00001653  00000-0  97884-3 0  9991
2 31310  98.8887 354.8751 0101724 179.7535 304.8829 14.06474899662407
FENGYUN 1C DEB          
1 31311U 99025BPP 20100.86745009  .00000573  00000-0  31985-3 0  9990
2 31311  98.9872 141.2307 0022830 247.2778 288.8319 14.14855043668143
FENGYUN 1C DEB          
1 31312U 99025BPQ 20098.95967774  .00000255  00000-0  20506-3 0  9996
2 31312  98.8796 132.4075 0064596 231.2921 247.1794 13.98302925661325
FENGYUN 1C DEB          
1 31313U 99025BPR 20100.73951164  .00000088  00000-0  64047-4 0  9996
2 31313  99.1788 273.9931 0046332 325.7459  34.0729 14.19454125676349
FENGYUN 1C DEB          
1 31314U 99025BPS 20100.31540592 -.00000074  00000-0 -19288-4 0  9994
2 31314  98.8760 128.9449 0080985  31.7213 328.8797 14.02830543317292
FENGYUN 1C DEB          
1 31316U 99025BPU 20100.93779755  .00000690  00000-0  39333-3 0  9993
2 31316  98.9764 157.8804 0117491   3.0925 357.0946 14.09617698669662
FENGYUN 1C DEB          
1 31317U 99025BPV 20100.66045645  .00003142  00000-0  86564-3 0  9991
2 31317  99.3578  78.5436 0075460 256.4302 102.8472 14.46051462672827
FENGYUN 1C DEB          
1 31319U 99025BPX 20101.39169855  .00000039  00000-0  74484-4 0  9995
2 31319  98.7383 136.8655 0170686 218.8154 150.4347 13.74947665652715
FENGYUN 1C DEB          
1 31320U 99025BPY 20100.68249251  .00000378  00000-0  25484-3 0  9998
2 31320  98.3341  48.7738 0127613 263.7132  94.9487 14.02014595311906
FENGYUN 1C DEB          
1 31321U 99025BPZ 20100.98357122  .00000022  00000-0  35729-4 0  9999
2 31321  98.8361 190.0778 0029295 307.5974  52.2539 14.12509187670200
FENGYUN 1C DEB          
1 31322U 99025BQA 20099.52563951  .00000059  00000-0  85611-4 0  9991
2 31322  98.5869 356.7350 0241746 156.8662 327.7114 13.71719400338298
FENGYUN 1C DEB          
1 31323U 99025BQB 20100.53060823  .00000589  00000-0  34474-3 0  9994
2 31323  99.3837 354.0160 0038368 135.8478 224.5765 14.12130064667525
FENGYUN 1C DEB          
1 31324U 99025BQC 20101.32968808  .00000016  00000-0  33583-4 0  9999
2 31324  99.3029 298.1961 0050864   8.3794 351.8215 14.13381846673085
FENGYUN 1C DEB          
1 31325U 99025BQD 20100.40746940  .00001018  00000-0  66314-3 0  9999
2 31325  99.0739 169.5627 0082784 255.0325 104.1665 14.03118647306120
FENGYUN 1C DEB          
1 31326U 99025BQE 20100.22747832  .00001548  00000-0  71235-3 0  9997
2 31326  99.0348 205.7283 0052590 278.3291  81.1925 14.21953485669773
FENGYUN 1C DEB          
1 31327U 99025BQF 20100.09054482  .00000326  00000-0  55734-4 0  9995
2 31327  98.9504 197.3234 0176309  34.9033 326.3580 14.67250847694932
FENGYUN 1C DEB          
1 31328U 99025BQG 20100.77007898 -.00000006  00000-0  13603-4 0  9995
2 31328  98.3954 125.3166 0105521 204.0503 155.5731 14.27793478678740
FENGYUN 1C DEB          
1 31329U 99025BQH 20100.33516864  .00000449  00000-0  14806-3 0  9991
2 31329  98.9314 316.4542 0084756 191.3400 168.5880 14.41245161680927
FENGYUN 1C DEB          
1 31330U 99025BQJ 20101.06157678  .00001113  00000-0  50428-3 0  9997
2 31330  98.9536 152.7021 0037067 160.0240 264.0017 14.23664779673427
FENGYUN 1C DEB          
1 31331U 99025BQK 20100.85142093 -.00000217  00000-0 -11642-3 0  9990
2 31331  99.1145 134.5506 0057074 167.8747 192.3805 13.99770199663928
FENGYUN 1C DEB          
1 31332U 99025BQL 20100.69655385  .00000395  00000-0  26542-3 0  9996
2 31332  98.8690 142.1588 0055082 105.9086  16.7137 14.05570702668075
FENGYUN 1C DEB          
1 31333U 99025BQM 20101.41361607  .00000287  00000-0  14753-3 0  9990
2 31333  98.6343 157.8770 0106555 288.9864  69.9791 14.19813846672506
FENGYUN 1C DEB          
1 31334U 99025BQN 20100.91904987  .00000825  00000-0  46813-3 0  9999
2 31334  99.1137 153.6822 0075033 104.2969 256.6548 14.11405474665534
FENGYUN 1C DEB          
1 31335U 99025BQP 20101.08571978  .00021791  00000-0  92479-3 0  9993
2 31335  98.7805 143.5123 0028690 127.3775 233.0077 15.22752771697249
FENGYUN 1C DEB          
1 31336U 99025BQQ 20101.35506863  .00000110  00000-0  52657-4 0  9992
2 31336  98.7316 134.9370 0100430 143.1428 230.4838 14.34200543681201
FENGYUN 1C DEB          
1 31337U 99025BQR 20100.33046143  .00001517  00000-0  42753-3 0  9997
2 31337  99.4459 240.6559 0048688 111.7961 248.8418 14.46818137414423
FENGYUN 1C DEB          
1 31338U 99025BQS 20101.36097242  .00001055  00000-0  69859-3 0  9991
2 31338  98.8272 330.5468 0092766 187.2500 172.7331 14.01560387663956
FENGYUN 1C DEB          
1 31339U 99025BQT 20100.91757303  .00000258  00000-0  18022-3 0  9993
2 31339  98.8912 143.2220 0080330  43.3044 317.4400 14.05513866665144
FENGYUN 1C DEB          
1 31340U 99025BQU 20100.32977924  .00001086  00000-0  55663-3 0  9995
2 31340  99.0059 147.6157 0043355 227.2270 132.5254 14.17140541373506
FENGYUN 1C DEB          
1 31341U 99025BQV 20100.87564041  .00000642  00000-0  24747-3 0  9994
2 31341  99.5512 241.7545 0073382 223.4522 290.9821 14.32760009678134
FENGYUN 1C DEB          
1 31342U 99025BQW 20100.86011304  .00000000  00000-0  16426-4 0  9997
2 31342  98.9686 327.2862 0115603 189.5185 170.3809 14.34564081681575
FENGYUN 1C DEB          
1 31345U 99025BQZ 20094.33080735  .00000538  00000-0  37747-3 0  9992
2 31345  98.1082 300.5530 0089413 251.4631 107.6806 14.00077905663218
FENGYUN 1C DEB          
1 31346U 99025BRA 20100.48172247  .00000520  00000-0  65494-4 0  9999
2 31346  98.8286 176.1484 0204197 125.3737 249.4724 14.73598902687597
FENGYUN 1C DEB          
1 31348U 99025BRC 20100.52105896  .00000434  00000-0  21924-3 0  9995
2 31348  99.2223 301.9343 0037650 254.1508 160.7354 14.21437006667202
FENGYUN 1C DEB          
1 31349U 99025BRD 20101.08808240 -.00000270  00000-0 -15173-3 0  9990
2 31349  99.2262  67.7674 0072361 164.8809 195.4540 13.99059933659429
FENGYUN 1C DEB          
1 31350U 99025BRE 20100.09424056  .00000148  00000-0  75779-4 0  9992
2 31350  98.7582 209.3655 0074627  52.7615 308.0344 14.27789148678100
FENGYUN 1C DEB          
1 31351U 99025BRF 20100.02503783  .00000083  00000-0  75032-4 0  9991
2 31351  98.8004 128.8201 0096933 113.1656 247.9759 14.04413777667616
FENGYUN 1C DEB          
1 31353U 99025BRH 20101.29763182  .00000144  00000-0  65251-4 0  9994
2 31353  99.1536 290.9768 0246200 273.7639  83.5421 14.23208839675351
FENGYUN 1C DEB          
1 31355U 99025BRK 20101.05183904  .00000861  00000-0  19806-3 0  9998
2 31355  98.8507  31.2963 0094656 267.7507 103.2012 14.55647035687329
FENGYUN 1C DEB          
1 31356U 99025BRL 20099.41937562  .00000752  00000-0  29809-3 0  9995
2 31356  98.7095 166.6960 0057026 343.8625  73.3138 14.30959722676188
FENGYUN 1C DEB          
1 31357U 99025BRM 20100.87112850 -.00000029  00000-0  73479-5 0  9996
2 31357  98.8812 134.2784 0050788 120.4657  54.7757 14.18236289673206
FENGYUN 1C DEB          
1 31358U 99025BRN 20100.81645894  .00001609  00000-0  53180-3 0  9999
2 31358  98.9385 241.0511 0159041 218.6409 140.3308 14.32581026675591
FENGYUN 1C DEB          
1 31359U 99025BRP 20099.92973199  .00000894  00000-0  59316-3 0  9993
2 31359  99.1976 149.3033 0088815 316.8675  42.5555 14.02211289343302
FENGYUN 1C DEB          
1 31360U 99025BRQ 20100.03232988  .00000662  00000-0  49376-3 0  9992
2 31360  98.0077 187.2662 0126498   7.8817 352.4296 13.94019825658955
FENGYUN 1C DEB          
1 31361U 99025BRR 20100.89810902  .00000003  00000-0  22356-4 0  9994
2 31361  98.5532 139.9116 0044800 287.8752  71.7540 14.16500362672101
FENGYUN 1C DEB          
1 31362U 99025BRS 20100.85579893  .00000018  00000-0  31283-4 0  9997
2 31362  98.6970 126.9756 0017569 283.4816  76.4400 14.15822387672526
FENGYUN 1C DEB          
1 31364U 99025BRU 20101.43791623  .00000418  00000-0  31555-3 0  9996
2 31364  99.2866 160.6875 0117457  85.6441 288.9364 13.96605601659338
FENGYUN 1C DEB          
1 31365U 99025BRV 20100.63844029  .00000672  00000-0  31651-3 0  9996
2 31365  98.8016 158.2636 0056393 147.8634   7.4899 14.22370769671059
FENGYUN 1C DEB          
1 31366U 99025BRW 20100.76312442  .00001540  00000-0  58019-3 0  9992
2 31366  98.8506 194.4275 0007125 146.5909  17.2877 14.32939132673081
